NORAD_CAT_ID,OBJECT_NAME,OBJECT_TYPE,EPOCH,MEAN_MOTION,ECCENTRICITY,INCLINATION,RA_OF_ASC_NODE,ARG_OF_PERICENTER,MEAN_ANOMALY,BSTAR,MEAN_MOTION_DOT,MEAN_MOTION_DDOT,TLE_LINE0,TLE_LINE1,TLE_LINE2,SEMIMAJOR_AXIS,PERIOD,APOGEE,PERIGEE,DECAYED
51866.0,STARLINK-3553,PAYLOAD,2022-05-10 18:00:00,15.38294974,0.0001893,53.2167,171.2842,34.3925,187.5542,-0.020051,-0.00710344,0.0,0 STARLINK-3553,1 51866U 22022Q   22130.75001157 -.00710344  00000-0 -20051-1 0  9998,2 51866  53.2167 171.2842 0001893  34.3925 187.5542 15.38294974  3652,6829.288000000001,93.61,452.446,449.86,0.0
51866.0,STARLINK-3553,PAYLOAD,2022-05-11 22:00:00,15.36514144,0.0001807,53.2174,165.8045,39.6758,162.9846,-0.021398,-0.00714909,0.0,0 STARLINK-3553,1 51866U 22022Q   22131.91667824 -.00714909  00000-0 -21398-1 0  9992,2 51866  53.2174 165.8045 0001807  39.6758 162.9846 15.36514144 12062,6834.564,93.719,457.664,455.194,0.0
51866.0,STARLINK-3553,PAYLOAD,2022-05-12 14:00:01,15.35495215,0.0001505,53.2173,162.6828,49.8661,241.2593,-0.022155,-0.00716082,0.0,0 STARLINK-3553,1 51866U 22022Q   22132.58334491 -.00716082  00000-0 -22155-1 0  9993,2 51866  53.2173 162.6828 0001505  49.8661 241.2593 15.35495215  1307,6837.587,93.781,460.481,458.423,0.0
51866.0,STARLINK-3553,PAYLOAD,2022-05-12 20:00:01,15.35113848,0.000178,53.2176,161.5112,40.9599,192.7093,-0.022504,-0.00718351,0.0,0 STARLINK-3553,1 51866U 22022Q   22132.83334491 -.00718351  00000-0 -22504-1 0  9990,2 51866  53.2176 161.5112 0001780  40.9599 192.7093 15.35113848 12206,6838.719,93.804,461.802,459.367,0.0
51866.0,STARLINK-3553,PAYLOAD,2022-05-12 22:00:00,15.349838,0.0001614,53.2175,161.1211,37.6926,296.7488,-0.022467,-0.00714469,0.0,0 STARLINK-3553,1 51866U 22022Q   22132.91667824 -.00714469  00000-0 -22467-1 0  9992,2 51866  53.2175 161.1211 0001614  37.6926 296.7488 15.34983800  1308,6839.106,93.812,462.074,459.867,0.0
51866.0,STARLINK-3553,PAYLOAD,2022-05-13 14:00:01,15.33965363,0.0001541999999999,53.2172,158.0067,40.8801,18.3493,-0.023266,-0.00716019,0.0,0 STARLINK-3553,1 51866U 22022Q   22133.58334491 -.00716019  00000-0 -23266-1 0  9998,2 51866  53.2172 158.0067 0001542  40.8801  18.3493 15.33965363  1304,6842.132,93.874,465.052,462.942,0.0
51866.0,STARLINK-3553,PAYLOAD,2022-05-13 22:00:00,15.33454949,0.0001519,53.2174,156.4486,44.7484,55.9584,-0.023661,-0.00716402,0.0,0 STARLINK-3553,1 51866U 22022Q   22133.91667824 -.00716402  00000-0 -23661-1 0  9999,2 51866  53.2174 156.4486 0001519  44.7484  55.9584 15.33454949 12377,6843.651,93.906,466.555,464.476,0.0
51866.0,STARLINK-3553,PAYLOAD,2022-05-14 14:00:01,15.32435969,0.0001729,53.2171,153.3412,44.3282,137.4902,-0.024473,-0.00717395,0.0,0 STARLINK-3553,1 51866U 22022Q   22134.58334491 -.00717395  00000-0 -24473-1 0  9998,2 51866  53.2171 153.3412 0001729  44.3282 137.4902 15.32435969  1305,6846.684,93.968,469.733,467.365,0.0
51866.0,STARLINK-3553,PAYLOAD,2022-05-14 22:00:00,15.31925254,0.0001740999999999,53.2172,151.7867,43.0535,178.4036,-0.02483,-0.00716322,0.0,0 STARLINK-3553,1 51866U 22022Q   22134.91667824 -.00716322  00000-0 -24830-1 0  9990,2 51866  53.2172 151.7867 0001741  43.0535 178.4036 15.31925254 12522,6848.206,93.999,471.263,468.878,0.0
51866.0,STARLINK-3553,PAYLOAD,2022-05-15 14:00:01,15.30907637,0.0001553,53.2171,148.6865,46.9332,252.0223,-0.025776,-0.00719917,0.0,0 STARLINK-3553,1 51866U 22022Q   22135.58335648 -.00719917  00000-0 -25776-1 0  9993,2 51866  53.2171 148.6865 0001553  46.9332 252.0223 15.30907637  1307,6851.24,94.062,474.169,472.041,0.0
51866.0,STARLINK-3553,PAYLOAD,2022-05-15 22:00:00,15.30393643,0.0001584,53.2173,147.1359,41.6532,295.0401,-0.025948,-0.00713693,0.0,0 STARLINK-3553,1 51866U 22022Q   22135.91667824 -.00713693  00000-0 -25948-1 0  9990,2 51866  53.2173 147.1359 0001584  41.6532 295.0401 15.30393643 12672,6852.774,94.093,475.724,473.55300000000005,0.0
51866.0,STARLINK-3553,PAYLOAD,2022-05-16 14:00:01,15.29376226,0.0001553,53.2171,144.0429,42.0404,8.4105,-0.026916,-0.00716996,0.0,0 STARLINK-3553,1 51866U 22022Q   22136.58334491 -.00716996  00000-0 -26916-1 0  9990,2 51866  53.2171 144.0429 0001553  42.0404   8.4105 15.29376226  1304,6855.813,94.156,478.74300000000005,476.61300000000006,0.0
51866.0,STARLINK-3553,PAYLOAD,2022-05-16 22:00:00,15.28865106,0.0001692,53.2173,142.4957,38.4838,47.9294,-0.027311,-0.00716191,0.0,0 STARLINK-3553,1 51866U 22022Q   22136.91667824 -.00716191  00000-0 -27311-1 0  9993,2 51866  53.2173 142.4957 0001692  38.4838  47.9294 15.28865106 12834,6857.340999999999,94.188,480.366,478.045,0.0
51866.0,STARLINK-3553,PAYLOAD,2022-05-17 14:00:01,15.27845424,0.0002106,53.217,139.4099,31.6081,124.9506,-0.028161,-0.0072403999999999,0.0,0 STARLINK-3553,1 51866U 22022Q   22137.58335648 -.00724040  00000-0 -28161-1 0  9999,2 51866  53.2170 139.4099 0002106  31.6081 124.9506 15.27845424  1302,6860.391,94.25,483.701,480.812,0.0
51866.0,STARLINK-3553,PAYLOAD,2022-05-17 20:00:01,15.27461814,0.0001688,53.2173,138.2521,38.0739,54.0716,-0.028433,-0.00722543,0.0,0 STARLINK-3553,1 51866U 22022Q   22137.83334491 -.00722543  00000-0 -28433-1 0  9990,2 51866  53.2173 138.2521 0001688  38.0739  54.0716 15.27461814 12975,6861.54,94.274,484.56300000000016,482.247,0.0
51866.0,STARLINK-3553,PAYLOAD,2022-05-17 22:00:01,15.27336724,0.0001766,53.2171,137.8664,43.8428,146.8388,-0.028731,-0.0072702,0.0,0 STARLINK-3553,1 51866U 22022Q   22137.91668981 -.00727020  00000-0 -28731-1 0  9999,2 51866  53.2171 137.8664 0001766  43.8428 146.8388 15.27336724  1303,6861.915,94.282,484.991,482.568,0.0
51866.0,STARLINK-3553,PAYLOAD,2022-05-18 14:00:01,15.26317248,0.0001675999999999,53.2171,134.7877,46.7525,210.2706,-0.029656,-0.00727426,0.0,0 STARLINK-3553,1 51866U 22022Q   22138.58334491 -.00727426  00000-0 -29656-1 0  9996,2 51866  53.2171 134.7877 0001676  46.7525 210.2706 15.26317248  1304,6864.97,94.345,487.985,485.684,0.0
51866.0,STARLINK-3553,PAYLOAD,2022-05-18 20:00:01,15.25932251,0.0001754999999999,53.2171,133.6326,43.3977,147.8973,-0.029795,-0.0072268999999999,0.0,0 STARLINK-3553,1 51866U 22022Q   22138.83334491 -.00722690  00000-0 -29795-1 0  9996,2 51866  53.2171 133.6326 0001755  43.3977 147.8973 15.25932251 13123,6866.124,94.369,489.194,486.784,0.0
51866.0,STARLINK-3553,PAYLOAD,2022-05-18 22:00:00,15.25804723,0.0001604,53.2173,133.2479,46.6992,242.6097,-0.029933,-0.00723183,0.0,0 STARLINK-3553,1 51866U 22022Q   22138.91667824 -.00723183  00000-0 -29933-1 0  9996,2 51866  53.2173 133.2479 0001604  46.6992 242.6097 15.25804723  1306,6866.507,94.376,489.473,487.271,0.0
51866.0,STARLINK-3553,PAYLOAD,2022-05-19 14:00:01,15.24787192,0.0001538,53.2172,130.1763,43.9116,308.1886,-0.031048,-0.00727132,0.0,0 STARLINK-3553,1 51866U 22022Q   22139.58335648 -.00727132  00000-0 -31048-1 0  9994,2 51866  53.2172 130.1763 0001538  43.9116 308.1886 15.24787192  1304,6869.562,94.439,492.483,490.37,0.0
51866.0,STARLINK-3553,PAYLOAD,2022-05-19 22:00:00,15.24274088,0.0001592,53.2172,128.6403,41.9181,340.566,-0.031279,-0.00721719,0.0,0 STARLINK-3553,1 51866U 22022Q   22139.91667824 -.00721719  00000-0 -31279-1 0  9996,2 51866  53.2172 128.6403 0001592  41.9181 340.5660 15.24274088 13282,6871.103,94.471,494.062,491.874,0.0
51866.0,STARLINK-3553,PAYLOAD,2022-05-20 14:00:01,15.23255806,0.0001538,53.2172,125.5759,46.2196,35.3158,-0.032369,-0.00724266,0.0,0 STARLINK-3553,1 51866U 22022Q   22140.58334491 -.00724266  00000-0 -32369-1 0  9993,2 51866  53.2172 125.5759 0001538  46.2196  35.3158 15.23255806  1303,6874.165,94.534,497.087,494.973,0.0
51866.0,STARLINK-3553,PAYLOAD,2022-05-20 22:00:00,15.2274573,0.0001556,53.2174,124.0434,50.4761,59.6671,-0.032842,-0.00723802,0.0,0 STARLINK-3553,1 51866U 22022Q   22140.91667824 -.00723802  00000-0 -32842-1 0  9990,2 51866  53.2174 124.0434 0001556  50.4761  59.6671 15.22745730 13440,6875.7,94.566,498.635,496.495,0.0
51866.0,STARLINK-3553,PAYLOAD,2022-05-21 06:00:00,15.22236453,0.0002059,53.2172,122.5155,34.9648,103.1716,-0.033424,-0.00725512,0.0,0 STARLINK-3553,1 51866U 22022Q   22141.25001157 -.00725512  00000-0 -33424-1 0  9996,2 51866  53.2172 122.5155 0002059  34.9648 103.1716 15.22236453  1305,6877.233,94.598,500.514,497.682,0.0
51866.0,STARLINK-3553,PAYLOAD,2022-05-21 14:00:01,15.21725624,0.0001785,53.2172,120.9859,42.7561,122.8262,-0.033844,-0.00723693,0.0,0 STARLINK-3553,1 51866U 22022Q   22141.58335648 -.00723693  00000-0 -33844-1 0  9991,2 51866  53.2172 120.9859 0001785  42.7561 122.8262 15.21725624  1300,6878.772,94.629,501.865,499.41,0.0
51866.0,STARLINK-3553,PAYLOAD,2022-05-21 20:00:01,15.2134328,0.000192,53.2173,119.8392,34.6267,61.0268,-0.034253,-0.00724195,0.0,0 STARLINK-3553,1 51866U 22022Q   22141.83334491 -.00724195  00000-0 -34253-1 0  9997,2 51866  53.2173 119.8392 0001920  34.6267  61.0268 15.21343280 13581,6879.925,94.653,503.111,500.469,0.0
51866.0,STARLINK-3553,PAYLOAD,2022-05-21 22:00:00,15.21216232,0.0001945,53.2173,119.4574,38.7602,153.5276,-0.034374,-0.00724049,0.0,0 STARLINK-3553,1 51866U 22022Q   22141.91667824 -.00724049  00000-0 -34374-1 0  9997,2 51866  53.2173 119.4574 0001945  38.7602 153.5276 15.21216232  1303,6880.308000000001,94.661,503.511,500.835,0.0
51866.0,STARLINK-3553,PAYLOAD,2022-05-22 14:00:01,15.20196859,0.0001652,53.2173,116.4069,49.7175,194.2692,-0.035511,-0.00725758,0.0,0 STARLINK-3553,1 51866U 22022Q   22142.58334491 -.00725758  00000-0 -35511-1 0  9994,2 51866  53.2173 116.4069 0001652  49.7175 194.2692 15.20196859  1306,6883.3830000000025,94.725,506.385,504.111,0.0
51866.0,STARLINK-3553,PAYLOAD,2022-05-22 22:00:01,15.19685219,0.0001806,53.2174,114.8818,41.87,227.1112,-0.035841,-0.0072191,0.0,0 STARLINK-3553,1 51866U 22022Q   22142.91668981 -.00721910  00000-0 -35841-1 0  9997,2 51866  53.2174 114.8818 0001806  41.8700 227.1112 15.19685219 13744,6884.928000000001,94.756,508.037,505.55,0.0
